GLOBALSTAR M063         
1 26081U 00008A   25317.08360539 -.00000048  00000+0  50480-3 0  9999
2 26081  51.9952  79.4259 0004112 228.6036 302.6118 11.86177317175243
GLOBALSTAR M062         
1 26082U 00008B   25317.22547905 -.00000026  00000+0  51890-3 0  9992
2 26082  51.9875  17.5009 0007358  73.1467 326.0804 12.43477662515161
GLOBALSTAR M060         
1 26083U 00008C   25317.30049497 -.00000092  00000+0 -12858-4 0  9991
2 26083  52.0047 358.3853 0003461  74.2952   5.8525 12.17667620170536
GLOBALSTAR M064         
1 26084U 00008D   25316.99942309 -.00000071  00000+0  17525-3 0  9991
2 26084  51.9997 176.7263 0001826  24.0290 336.0628 11.88538413184797
GLOBALSTAR M065         
1 31571U 07020A   25316.90721549 -.00000050  00000+0  29966-3 0  9990
2 31571  51.9864 133.6064 0008983 277.9982 247.4328 12.62013506852187
GLOBALSTAR M069         
1 31573U 07020C   25317.29136096 -.00000071  00000+0  19972-3 0  9991
2 31573  52.0000 143.1929 0002861  74.5375  96.0409 12.23463346852372
GLOBALSTAR M072         
1 31574U 07020D   25317.23585046 -.00000047  00000+0  50086-3 0  9993
2 31574  51.9948 315.1664 0000912 259.7825 184.2798 11.91653295849231
GLOBALSTAR M071         
1 31576U 07020F   25316.86757581 -.00000135  00000+0 -43532-3 0  9995
2 31576  52.0034 174.2034 0001917  66.5739 306.1503 12.18261572513061
